NORAD_CAT_ID,OBJECT_NAME,OBJECT_TYPE,EPOCH,MEAN_MOTION,ECCENTRICITY,INCLINATION,RA_OF_ASC_NODE,ARG_OF_PERICENTER,MEAN_ANOMALY,BSTAR,MEAN_MOTION_DOT,MEAN_MOTION_DDOT,TLE_LINE0,TLE_LINE1,TLE_LINE2,SEMIMAJOR_AXIS,PERIOD,APOGEE,PERIGEE,DECAYED
56488.0,STARLINK-6204,PAYLOAD,2024-01-22 20:10:42,14.98335596,0.0002432,69.9996,263.3384,263.4583,96.63,-6.743e-05,-8.97e-06,0.0,0 STARLINK-6204,1 56488U 23064AS  24022.84077183 -.00000897  00000-0 -67430-4 0  9994,2 56488  69.9996 263.3384 0002432 263.4583  96.6300 14.98335596 40227,6950.176,96.107,573.731,570.35,0.0
56488.0,STARLINK-6204,PAYLOAD,2024-01-22 21:46:50,14.98332369,0.0002495,69.9994,263.1699,261.7439,98.3437,-6.1124e-05,-8.22e-06,0.0,0 STARLINK-6204,1 56488U 23064AS  24022.90753317 -.00000822  00000-0 -61124-4 0  9993,2 56488  69.9994 263.1699 0002495 261.7439  98.3437 14.98332369 39876,6950.186,96.107,573.785,570.316,0.0
56488.0,STARLINK-6204,PAYLOAD,2024-01-23 00:59:06,14.98333839,0.0002458,69.9994,262.8333,261.9171,98.1709,-5.3779e-05,-7.35e-06,0.0,0 STARLINK-6204,1 56488U 23064AS  24023.04105158 -.00000735  00000-0 -53779-4 0  9993,2 56488  69.9994 262.8333 0002458 261.9171  98.1709 14.98333839 39896,6950.181,96.107,573.754,570.338,0.0
56488.0,STARLINK-6204,PAYLOAD,2024-01-23 17:00:27,14.98364358,0.0002342,69.9996,261.151,248.1112,111.9798,-0.00060349,-7.292e-05,0.0,0 STARLINK-6204,1 56488U 23064AS  24023.70864704 -.00007292  00000-0 -60349-3 0  9990,2 56488  69.9996 261.1510 0002342 248.1112 111.9798 14.98364358 40356,6950.087,96.105,573.579,570.324,0.0
56488.0,STARLINK-6204,PAYLOAD,2024-01-23 21:48:50,14.98381151,0.0002636,69.9996,260.6459,249.2947,110.7929,-0.00096058,-0.00011551,0.0,0 STARLINK-6204,1 56488U 23064AS  24023.90892193 -.00011551  00000-0 -96058-3 0  9994,2 56488  69.9996 260.6459 0002636 249.2947 110.7929 14.98381151 40023,6950.035,96.104,573.732,570.068,0.0
56488.0,STARLINK-6204,PAYLOAD,2024-01-24 01:01:08,14.98328475,0.0002465,69.9994,260.3086,253.0413,107.0476,-0.00015424,-1.933e-05,0.0,0 STARLINK-6204,1 56488U 23064AS  24024.04245426 -.00001933  00000-0 -15424-3 0  9992,2 56488  69.9994 260.3086 0002465 253.0413 107.0476 14.98328475 40403,6950.198,96.107,573.776,570.349,0.0
56488.0,STARLINK-6204,PAYLOAD,2024-01-24 20:14:43,14.98333978,0.0002772,69.9983,258.287,261.3322,98.7523,3.4877e-05,3.23e-06,0.0,0 STARLINK-6204,1 56488U 23064AS  24024.84356421  .00000323  00000-0  34877-4 0  9992,2 56488  69.9983 258.2870 0002772 261.3322  98.7523 14.98333978 40526,6950.181,96.107,573.972,570.119,0.0
56488.0,STARLINK-6204,PAYLOAD,2024-01-24 21:50:52,14.98333557,0.0002766,69.9985,258.1189,260.8573,99.2274,2.9911e-05,2.64e-06,0.0,0 STARLINK-6204,1 56488U 23064AS  24024.91032446  .00000264  00000-0  29911-4 0  9995,2 56488  69.9985 258.1189 0002766 260.8573  99.2274 14.98333557 40178,6950.182,96.107,573.969,570.124,0.0
56488.0,STARLINK-6204,PAYLOAD,2024-01-25 01:03:07,14.98335096,0.0002734,69.9985,257.7826,259.1148,100.9703,4.7655e-05,4.76e-06,0.0,0 STARLINK-6204,1 56488U 23064AS  24025.04384257  .00000476  00000-0  47655-4 0  9990,2 56488  69.9985 257.7826 0002734 259.1148 100.9703 14.98335096 40194,6950.177,96.107,573.942,570.142,0.0
56488.0,STARLINK-6204,PAYLOAD,2024-01-25 20:16:45,14.98327053,0.0002704,69.9989,255.7632,259.8163,100.2691,4.1205e-05,3.99e-06,0.0,0 STARLINK-6204,1 56488U 23064AS  24025.84496740  .00000399  00000-0  41205-4 0  9998,2 56488  69.9989 255.7632 0002704 259.8163 100.2691 14.98327053 40678,6950.202,96.107,573.946,570.188,0.0
56488.0,STARLINK-6204,PAYLOAD,2024-01-25 21:52:53,14.98326452,0.0002726,69.9989,255.595,260.8677,99.2174,3.1331e-05,2.81e-06,0.0,0 STARLINK-6204,1 56488U 23064AS  24025.91172820  .00000281  00000-0  31331-4 0  9995,2 56488  69.9989 255.5950 0002726 260.8677  99.2174 14.98326452 40322,6950.204,96.107,573.963,570.174,0.0
56488.0,STARLINK-6204,PAYLOAD,2024-01-26 01:05:09,14.98327147,0.0002724,69.9989,255.2585,261.065,99.0201,3.6268e-05,3.4e-06,0.0,0 STARLINK-6204,1 56488U 23064AS  24026.04524779  .00000340  00000-0  36268-4 0  9994,2 56488  69.9989 255.2585 0002724 261.0650  99.0201 14.98327147 40348,6950.202,96.107,573.96,570.173,0.0
56488.0,STARLINK-6204,PAYLOAD,2024-01-26 18:42:37,14.98336714,0.0002725,69.999,253.4064,263.6873,96.3976,-2.8602e-06,-1.27e-06,0.0,0 STARLINK-6204,1 56488U 23064AS  24026.77960162 -.00000127  00000-0 -28602-5 0  9993,2 56488  69.9990 253.4064 0002725 263.6873  96.3976 14.98336714 40819,6950.172,96.107,573.931,570.143,0.0
56488.0,STARLINK-6204,PAYLOAD,2024-01-27 13:56:14,14.98328197,0.000257,69.9995,251.3873,261.5452,98.5416,1.2343e-05,5.4e-07,0.0,0 STARLINK-6204,1 56488U 23064AS  24027.58072392  .00000054  00000-0  12343-4 0  9993,2 56488  69.9995 251.3873 0002570 261.5452  98.5416 14.98328197 40579,6950.198,96.107,573.85,570.277,0.0
56488.0,STARLINK-6204,PAYLOAD,2024-01-27 20:20:46,14.98327601,0.0002542,69.9997,250.7132,264.4158,95.6711,1.0493e-05,3.2e-07,0.0,0 STARLINK-6204,1 56488U 23064AS  24027.84776478  .00000032  00000-0  10493-4 0  9998,2 56488  69.9997 250.7132 0002542 264.4158  95.6711 14.98327601 40975,6950.2,96.107,573.832,570.299,0.0
56488.0,STARLINK-6204,PAYLOAD,2024-01-27 21:56:55,14.98325597,0.0002597,69.9997,250.5453,266.7852,93.301,-1.6438e-05,-2.89e-06,0.0,0 STARLINK-6204,1 56488U 23064AS  24027.91452703 -.00000289  00000-0 -16438-4 0  9999,2 56488  69.9997 250.5453 0002597 266.7852  93.3010 14.98325597 40626,6950.207,96.107,573.876,570.267,0.0
56488.0,STARLINK-6204,PAYLOAD,2024-01-28 01:09:11,14.98326323,0.0002595,69.9997,250.2087,265.6526,94.4337,-9.0849e-06,-2.01e-06,0.0,0 STARLINK-6204,1 56488U 23064AS  24028.04804654 -.00000201  00000-0 -90849-5 0  9993,2 56488  69.9997 250.2087 0002595 265.6526  94.4337 14.98326323 40644,6950.204,96.107,573.873,570.266,0.0
56488.0,STARLINK-6204,PAYLOAD,2024-01-28 21:58:55,14.98330995,0.0002616,69.9998,248.0206,262.035,98.0513,-4.2303e-05,-5.98e-06,0.0,0 STARLINK-6204,1 56488U 23064AS  24028.91592368 -.00000598  00000-0 -42303-4 0  9995,2 56488  69.9998 248.0206 0002616 262.0350  98.0513 14.98330995 40773,6950.19,96.107,573.873,570.237,0.0
56488.0,STARLINK-6204,PAYLOAD,2024-01-28 23:35:03,14.98331773,0.0002607,69.9998,247.8523,262.7326,97.3537,-3.2365e-05,-4.79e-06,0.0,0 STARLINK-6204,1 56488U 23064AS  24028.98268286 -.00000479  00000-0 -32365-4 0  9996,2 56488  69.9998 247.8523 0002607 262.7326  97.3537 14.98331773 41147,6950.187,96.107,573.864,570.24,0.0
56488.0,STARLINK-6204,PAYLOAD,2024-01-30 01:13:12,14.98330493,0.0002706,69.9998,245.1592,264.0306,96.0544,4.4434e-05,4.37e-06,0.0,0 STARLINK-6204,1 56488U 23064AS  24030.05084032  .00000437  00000-0  44434-4 0  9994,2 56488  69.9998 245.1592 0002706 264.0306  96.0544 14.98330493 41307,6950.191,96.107,573.937,570.176,0.0
56488.0,STARLINK-6204,PAYLOAD,2024-01-30 22:02:57,14.98327959,0.0002724,69.9994,242.9705,264.3775,95.7074,-2.7578e-05,-4.22e-06,0.0,0 STARLINK-6204,1 56488U 23064AS  24030.91872404 -.00000422  00000-0 -27578-4 0  9993,2 56488  69.9994 242.9705 0002724 264.3775  95.7074 14.98327959 41078,6950.199,96.107,573.957,570.171,0.0
56488.0,STARLINK-6204,PAYLOAD,2024-01-30 23:39:05,14.98328152,0.0002743,69.9994,242.8019,265.7821,94.3025,-2.5678e-05,-3.99e-06,0.0,0 STARLINK-6204,1 56488U 23064AS  24030.98548395 -.00000399  00000-0 -25678-4 0  9991,2 56488  69.9994 242.8019 0002743 265.7821  94.3025 14.98328152 41081,6950.199,96.107,573.97,570.157,0.0
56488.0,STARLINK-6204,PAYLOAD,2024-01-31 23:41:06,14.9832884,0.0002835,69.9991,240.2769,269.1624,90.9211,2.7564e-05,2.36e-06,0.0,0 STARLINK-6204,1 56488U 23064AS  24031.98688123  .00000236  00000-0  27564-4 0  9990,2 56488  69.9991 240.2769 0002835 269.1624  90.9211 14.98328840 41592,6950.196,96.107,574.032,570.091,0.0
56488.0,STARLINK-6204,PAYLOAD,2024-02-01 23:43:07,14.98326922,0.0002881,69.9989,237.752,269.5098,90.5731,-6.1456e-06,-1.66e-06,0.0,0 STARLINK-6204,1 56488U 23064AS  24032.98828448 -.00000166  00000-0 -61456-5 0  9990,2 56488  69.9989 237.7520 0002881 269.5098  90.5731 14.98326922 41744,6950.202,96.107,574.07,570.065,0.0
56488.0,STARLINK-6204,PAYLOAD,2024-02-02 14:08:20,14.98328251,0.0003061,70.001,236.2362,265.7151,94.3658,1.9734e-05,1.42e-06,0.0,0 STARLINK-6204,1 56488U 23064AS  24033.58912201  .00000142  00000-0  19734-4 0  9991,2 56488  70.0010 236.2362 0003061 265.7151  94.3658 14.98328251 41476,6950.198,96.107,574.191,569.936,0.0
56488.0,STARLINK-6204,PAYLOAD,2024-02-02 22:09:00,14.98330096,0.0002746,69.9996,235.3958,271.8975,88.1869,4.0982e-05,3.96e-06,0.0,0 STARLINK-6204,1 56488U 23064AS  24033.92292161  .00000396  00000-0  40982-4 0  9995,2 56488  69.9996 235.3958 0002746 271.8975  88.1869 14.98330096 41529,6950.193,96.107,573.966,570.149,0.0
56488.0,STARLINK-6204,PAYLOAD,2024-02-02 23:45:08,14.98330248,0.000275,69.9996,235.2276,272.2089,87.8755,4.1651e-05,4.04e-06,0.0,0 STARLINK-6204,1 56488U 23064AS  24033.98968149  .00000404  00000-0  41651-4 0  9991,2 56488  69.9996 235.2276 0002750 272.2089  87.8755 14.98330248 41896,6950.192,96.107,573.968,570.146,0.0
56488.0,STARLINK-6204,PAYLOAD,2024-02-03 22:11:01,14.98330762,0.000269,69.9998,232.8713,270.6014,89.4837,-2.407e-06,-1.22e-06,0.0,0 STARLINK-6204,1 56488U 23064AS  24034.92432236 -.00000122  00000-0 -24070-5 0  9995,2 56488  69.9998 232.8713 0002690 270.6014  89.4837 14.98330762 41676,6950.191,96.107,573.925,570.186,0.0
56488.0,STARLINK-6204,PAYLOAD,2024-02-04 14:12:21,14.98333614,0.0002744,69.9997,231.1882,271.3743,88.7102,9.2308e-06,1.7e-07,0.0,0 STARLINK-6204,1 56488U 23064AS  24035.59191909  .00000017  00000-0  92308-5 0  9998,2 56488  69.9997 231.1882 0002744 271.3743  88.7102 14.98333614 41778,6950.182,96.107,573.954,570.14,0.0
56488.0,STARLINK-6204,PAYLOAD,2024-02-04 19:00:45,14.9833371,0.0002753,69.9997,230.6833,271.6176,88.4668,1.0218e-05,2.9e-07,0.0,0 STARLINK-6204,1 56488U 23064AS  24035.79219847  .00000029  00000-0  10218-4 0  9994,2 56488  69.9997 230.6833 0002753 271.6176  88.4668 14.98333710 42166,6950.181,96.107,573.96,570.133,0.0
